[
    {
        "Altitude(m)": 717841.4918053156,
        "Argument of Periapsis(deg)": 0.011390121186627068,
        "Eccentricity": 0.0,
        "Inclination(deg)": 45.0,
        "Latitude(deg)": -45.055944853734665,
        "Longitude(deg)": -31.032798936277842,
        "Mean Anomaly(deg)": -86.64858335251918,
        "RAAN(deg)": 154.98924805854182,
        "Satellite Name": "Constellation 1 698",
        "Satellite Number": 698,
        "Semi-Major Axis(m)": 7083131.272910544,
        "Time(s)": 190
    },
    {
        "Altitude(m)": 717840.0124637542,
        "Argument of Periapsis(deg)": 0.011450069192872472,
        "Eccentricity": 0.0,
        "Inclination(deg)": 45.0,
        "Latitude(deg)": -45.05236863312296,
        "Longitude(deg)": -30.951567929766547,
        "Mean Anomaly(deg)": -86.5878822122693,
        "RAAN(deg)": 154.9891914693762,
        "Satellite Name": "Constellation 1 698",
        "Satellite Number": 698,
        "Semi-Major Axis(m)": 7083131.272910544,
        "Time(s)": 191
    },
    {
        "Altitude(m)": 717838.5068703674,
        "Argument of Periapsis(deg)": 0.01151001719911788,
        "Eccentricity": 0.0,
        "Inclination(deg)": 45.0,
        "Latitude(deg)": -45.04872867526563,
        "Longitude(deg)": -30.870347630839163,
        "Mean Anomaly(deg)": -86.52718107201936,
        "RAAN(deg)": 154.98913488021066,
        "Satellite Name": "Constellation 1 698",
        "Satellite Number": 698,
        "Semi-Major Axis(m)": 7083131.272910544,
        "Time(s)": 192
    },
    {
        "Altitude(m)": 717836.9750306932,
        "Argument of Periapsis(deg)": 0.011569965205363285,
        "Eccentricity": 0.0,
        "Inclination(deg)": 45.0,
        "Latitude(deg)": -45.04502499614386,
        "Longitude(deg)": -30.789138393951564,
        "Mean Anomaly(deg)": -86.4664799317695,
        "RAAN(deg)": 154.9890782910451,
        "Satellite Name": "Constellation 1 698",
        "Satellite Number": 698,
        "Semi-Major Axis(m)": 7083131.272910544,
        "Time(s)": 193
    },
    {
        "Altitude(m)": 717835.4169503739,
        "Argument of Periapsis(deg)": 0.01162991321160869,
        "Eccentricity": 0.0,
        "Inclination(deg)": 45.0,
        "Latitude(deg)": -45.04125761201268,
        "Longitude(deg)": -30.70794006907482,
        "Mean Anomaly(deg)": -86.40577879151958,
        "RAAN(deg)": 154.98902170187952,
        "Satellite Name": "Constellation 1 698",
        "Satellite Number": 698,
        "Semi-Major Axis(m)": 7083131.272910544,
        "Time(s)": 194
    },
    {
        "Altitude(m)": 717833.8326351381,
        "Argument of Periapsis(deg)": 0.011689861217854095,
        "Eccentricity": 0.0,
        "Inclination(deg)": 45.0,
        "Latitude(deg)": -45.03742653940207,
        "Longitude(deg)": -30.626753010276506,
        "Mean Anomaly(deg)": -86.34507765126969,
        "RAAN(deg)": 154.98896511271397,
        "Satellite Name": "Constellation 1 698",
        "Satellite Number": 698,
        "Semi-Major Axis(m)": 7083131.272910544,
        "Time(s)": 195
    },
    {
        "Altitude(m)": 717832.2220908204,
        "Argument of Periapsis(deg)": 0.0117498092240995,
        "Eccentricity": 0.0,
        "Inclination(deg)": 45.0,
        "Latitude(deg)": -45.03353179511562,
        "Longitude(deg)": -30.545577403327993,
        "Mean Anomaly(deg)": -86.2843765110198,
        "RAAN(deg)": 154.98890852354836,
        "Satellite Name": "Constellation 1 698",
        "Satellite Number": 698,
        "Semi-Major Axis(m)": 7083131.272910544,
        "Time(s)": 196
    },
    {
        "Altitude(m)": 717830.585323349,
        "Argument of Periapsis(deg)": 0.011809757230344905,
        "Eccentricity": 0.0,
        "Inclination(deg)": 45.0,
        "Latitude(deg)": -45.02957339623053,
        "Longitude(deg)": -30.46441343379837,
        "Mean Anomaly(deg)": -86.22367537076984,
        "RAAN(deg)": 154.9888519343828,
        "Satellite Name": "Constellation 1 698",
        "Satellite Number": 698,
        "Semi-Major Axis(m)": 7083131.272910544,
        "Time(s)": 197
    },
    {
        "Altitude(m)": 717828.9223387525,
        "Argument of Periapsis(deg)": 0.011869705236590313,
        "Eccentricity": 0.0,
        "Inclination(deg)": 45.0,
        "Latitude(deg)": -45.02555136009708,
        "Longitude(deg)": -30.383261287051983,
        "Mean Anomaly(deg)": -86.16297423052,
        "RAAN(deg)": 154.98879534521726,
        "Satellite Name": "Constellation 1 698",
        "Satellite Number": 698,
        "Semi-Major Axis(m)": 7083131.272910544,
        "Time(s)": 198
    },
    {
        "Altitude(m)": 717827.2331431505,
        "Argument of Periapsis(deg)": 0.011929653242835719,
        "Eccentricity": 0.0,
        "Inclination(deg)": 45.0,
        "Latitude(deg)": -45.02146570433841,
        "Longitude(deg)": -30.302121148244474,
        "Mean Anomaly(deg)": -86.10227309027007,
        "RAAN(deg)": 154.98873875605167,
        "Satellite Name": "Constellation 1 698",
        "Satellite Number": 698,
        "Semi-Major Axis(m)": 7083131.272910544,
        "Time(s)": 199
    }
]